[{"OBJECT_NAME":"STARLINK-2657","OBJECT_ID":"2021-044T","EPOCH":"2026-03-09T08:45:14.395680","MEAN_MOTION":15.30198894,"ECCENTRICITY":0.0001427,"INCLINATION":53.1598,"RA_OF_ASC_NODE":115.475,"ARG_OF_PERICENTER":84.8607,"MEAN_ANOMALY":275.2557,"EPHEMERIS_TYPE":0,"CLASSIFICATION_TYPE":"U","NORAD_CAT_ID":48655,"ELEMENT_SET_NO":999,"REV_AT_EPOCH":26377,"BSTAR":9.1872871e-5,"MEAN_MOTION_DOT":2.363e-5,"MEAN_MOTION_DDOT":0},{"OBJECT_NAME":"LIZZIESAT-2 (LS-2)","OBJECT_ID":"2024-247G","EPOCH":"2026-03-09T11:47:37.199328","MEAN_MOTION":15.28222796,"ECCENTRICITY":0.00040927,"INCLINATION":44.9909,"RA_OF_ASC_NODE":117.0823,"ARG_OF_PERICENTER":327.5136,"MEAN_ANOMALY":32.5495,"EPHEMERIS_TYPE":0,"CLASSIFICATION_TYPE":"U","NORAD_CAT_ID":62383,"ELEMENT_SET_NO":999,"REV_AT_EPOCH":6771,"BSTAR":0.00034516624,"MEAN_MOTION_DOT":9.388e-5,"MEAN_MOTION_DDOT":0}]
