STARLINK-2657           
1 48655U 21044T   26068.36474995  .00002363  00000+0  91873-4 0  9993
2 48655  53.1598 115.4750 0001427  84.8607 275.2557 15.30198894263777
LIZZIESAT-2 (LS-2)      
1 62383U 24247G   26068.49140277  .00009388  00000+0  34517-3 0  9997
2 62383  44.9909 117.0823 0004092 327.5136  32.5495 15.28222796 67716
